{"type": "FeatureCollection", "features": [ {"type": "Feature", "properties": {"norad_id": 33492, "name": "GOSAT (IBUKI)", "group": "resource", "lat": 43.17629332882866, "lon": -80.21264161128214, "alt_km": 664.8831013427816, "timestamp": "2025-12-09T11:33:54.457072+00:00", "meta": {"OBJECT_NAME": "GOSAT (IBUKI)", "OBJECT_ID": "2009-002A", "EPOCH": "2025-12-09T04:24:04.320576", "MEAN_MOTION": 14.67543478, "ECCENTRICITY": 9.66e-05, "INCLINATION": 98.0769, "RA_OF_ASC_NODE": 91.8362, "ARG_OF_PERICENTER": 89.0788, "MEAN_ANOMALY": 271.0527, "EPHEMERIS_TYPE": 0, "CLASSIFICATION_TYPE": "U", "NORAD_CAT_ID": 33492, "ELEMENT_SET_NO": 999, "REV_AT_EPOCH": 90359, "BSTAR": 0.00025702, "MEAN_MOTION_DOT": 1.41e-05, "MEAN_MOTION_DDOT": 0}, "tle": {"line1": "1 33492U 09002A   25343.18338334  .00001410  00000+0  25702-3 0  9996", "line2": "2 33492  98.0769  91.8362 0000966  89.0788 271.0527 14.67543478903591"}}, "geometry": {"type": "Point", "coordinates": [-80.21264161128214, 43.17629332882866]}}, {"type": "Feature", "properties": {"norad_id": 35681, "name": "DEIMOS-1", "group": "resource", "lat": 51.821504534757445, "lon": -25.836652140436218, "alt_km": 639.1452066928969, "timestamp": "2025-12-09T11:33:54.457083+00:00", "meta": {"OBJECT_NAME": "DEIMOS-1", "OBJECT_ID": "2009-041A", "EPOCH": "2025-12-09T04:28:36.666336", "MEAN_MOTION": 14.74943838, "ECCENTRICITY": 0.0002712, "INCLINATION": 97.7145, "RA_OF_ASC_NODE": 143.955, "ARG_OF_PERICENTER": 85.1111, "MEAN_ANOMALY": 275.0408, "EPHEMERIS_TYPE": 0, "CLASSIFICATION_TYPE": "U", "NORAD_CAT_ID": 35681, "ELEMENT_SET_NO": 999, "REV_AT_EPOCH": 87887, "BSTAR": 0.00016651, "MEAN_MOTION_DOT": 1.071e-05, "MEAN_MOTION_DDOT": 0}, "tle": {"line1": "1 35681U 09041A   25343.18653549  .00001071  00000+0  16651-3 0  9995", "line2": "2 35681  97.7145 143.9550 0002712  85.1111 275.0408 14.74943838878879"}}, "geometry": {"type": "Point", "coordinates": [-25.836652140436218, 51.821504534757445]}}, {"type": "Feature", "properties": {"norad_id": 35682, "name": "DUBAISAT-1", "group": "resource", "lat": 65.15944445930612, "lon": 96.57244982025463, "alt_km": 641.3406753236131, "timestamp": "2025-12-09T11:33:54.457094+00:00", "meta": {"OBJECT_NAME": "DUBAISAT-1", "OBJECT_ID": "2009-041B", "EPOCH": "2025-12-08T22:14:12.681888", "MEAN_MOTION": 14.74586479, "ECCENTRICITY": 0.0009788, "INCLINATION": 97.979, "RA_OF_ASC_NODE": 113.6627, "ARG_OF_PERICENTER": 327.7971, "MEAN_ANOMALY": 32.2638, "EPHEMERIS_TYPE": 0, "CLASSIFICATION_TYPE": "U", "NORAD_CAT_ID": 35682, "ELEMENT_SET_NO": 999, "REV_AT_EPOCH": 87705, "BSTAR": 0.000302, "MEAN_MOTION_DOT": 1.963e-05, "MEAN_MOTION_DDOT": 0}, "tle": {"line1": "1 35682U 09041B   25342.92653567  .00001963  00000+0  30200-3 0  9993", "line2": "2 35682  97.9790 113.6627 0009788 327.7971  32.2638 14.74586479877057"}}, "geometry": {"type": "Point", "coordinates": [96.57244982025463, 65.15944445930612]}}, {"type": "Feature", "properties": {"norad_id": 35931, "name": "OCEANSAT-2", "group": "resource", "lat": 41.279822668589865, "lon": -22.879714117971815, "alt_km": 880.0868627076043, "timestamp": "2025-12-09T11:33:54.457104+00:00", "meta": {"OBJECT_NAME": "OCEANSAT-2", "OBJECT_ID": "2009-051A", "EPOCH": "2025-12-09T04:30:13.608864", "MEAN_MOTION": 13.99625369, "ECCENTRICITY": 0.0016356, "INCLINATION": 98.2225, "RA_OF_ASC_NODE": 344.1486, "ARG_OF_PERICENTER": 54.3063, "MEAN_ANOMALY": 305.9624, "EPHEMERIS_TYPE": 0, "CLASSIFICATION_TYPE": "U", "NORAD_CAT_ID": 35931, "ELEMENT_SET_NO": 999, "REV_AT_EPOCH": 85275, "BSTAR": -8.4705e-05, "MEAN_MOTION_DOT": -1.61e-06, "MEAN_MOTION_DDOT": 0}, "tle": {"line1": "1 35931U 09051A   25343.18765751 -.00000161  00000+0 -84705-4 0  9990", "line2": "2 35931  98.2225 344.1486 0016356  54.3063 305.9624 13.99625369852752"}}, "geometry": {"type": "Point", "coordinates": [-22.879714117971815, 41.279822668589865]}}, {"type": "Feature", "properties": {"norad_id": 35946, "name": "WORLDVIEW-2 (WV-2)", "group": "resource", "lat": 74.91713265397796, "lon": 21.015044189901, "alt_km": 755.2940688741701, "timestamp": "2025-12-09T11:33:54.457115+00:00", "meta": {"OBJECT_NAME": "WORLDVIEW-2 (WV-2)", "OBJECT_ID": "2009-055A", "EPOCH": "2025-12-09T04:31:29.779104", "MEAN_MOTION": 14.37650115, "ECCENTRICITY": 0.0005369, "INCLINATION": 98.4763, "RA_OF_ASC_NODE": 54.3222, "ARG_OF_PERICENTER": 75.4468, "MEAN_ANOMALY": 284.7314, "EPHEMERIS_TYPE": 0, "CLASSIFICATION_TYPE": "U", "NORAD_CAT_ID": 35946, "ELEMENT_SET_NO": 999, "REV_AT_EPOCH": 84834, "BSTAR": 0.00011095, "MEAN_MOTION_DOT": 2.9e-06, "MEAN_MOTION_DDOT": 0}, "tle": {"line1": "1 35946U 09055A   25343.18853911  .00000290  00000+0  11095-3 0  9998", "line2": "2 35946  98.4763  54.3222 0005369  75.4468 284.7314 14.37650115848340"}}, "geometry": {"type": "Point", "coordinates": [21.015044189901, 74.91713265397796]}}, {"type": "Feature", "properties": {"norad_id": 36036, "name": "SMOS", "group": "resource", "lat": 81.46421464608636, "lon": 87.06400871258847, "alt_km": 751.119272768824, "timestamp": "2025-12-09T11:33:54.457125+00:00", "meta": {"OBJECT_NAME": "SMOS", "OBJECT_ID": "2009-059A", "EPOCH": "2025-12-09T02:48:53.559648", "MEAN_MOTION": 14.39736041, "ECCENTRICITY": 0.000111, "INCLINATION": 98.4383, "RA_OF_ASC_NODE": 168.2193, "ARG_OF_PERICENTER": 84.3146, "MEAN_ANOMALY": 275.8169, "EPHEMERIS_TYPE": 0, "CLASSIFICATION_TYPE": "U", "NORAD_CAT_ID": 36036, "ELEMENT_SET_NO": 999, "REV_AT_EPOCH": 84610, "BSTAR": 0.00020332, "MEAN_MOTION_DOT": 5.93e-06, "MEAN_MOTION_DDOT": 0}, "tle": {"line1": "1 36036U 09059A   25343.11728657  .00000593  00000+0  20332-3 0  9994", "line2": "2 36036  98.4383 168.2193 0001110  84.3146 275.8169 14.39736041846109"}}, "geometry": {"type": "Point", "coordinates": [87.06400871258847, 81.46421464608636]}}, {"type": "Feature", "properties": {"norad_id": 36110, "name": "YAOGAN-7", "group": "resource", "lat": -8.640434441419268, "lon": 44.021182938071256, "alt_km": 644.4887552117871, "timestamp": "2025-12-09T11:33:54.457136+00:00", "meta": {"OBJECT_NAME": "YAOGAN-7", "OBJECT_ID": "2009-069A", "EPOCH": "2025-12-09T04:12:41.641344", "MEAN_MOTION": 14.7772361, "ECCENTRICITY": 0.0023481, "INCLINATION": 98.0303, "RA_OF_ASC_NODE": 224.9452, "ARG_OF_PERICENTER": 293.4316, "MEAN_ANOMALY": 66.4425, "EPHEMERIS_TYPE": 0, "CLASSIFICATION_TYPE": "U", "NORAD_CAT_ID": 36110, "ELEMENT_SET_NO": 999, "REV_AT_EPOCH": 86156, "BSTAR": 0.00015296, "MEAN_MOTION_DOT": 1.048e-05, "MEAN_MOTION_DDOT": 0}, "tle": {"line1": "1 36110U 09069A   25343.17548196  .00001048  00000+0  15296-3 0  9991", "line2": "2 36110  98.0303 224.9452 0023481 293.4316  66.4425 14.77723610861561"}}, "geometry": {"type": "Point", "coordinates": [44.021182938071256, -8.640434441419268]}}, {"type": "Feature", "properties": {"norad_id": 36605, "name": "TANDEM-X", "group": "resource", "lat": -49.86151535751674, "lon": -2.1673356537242707, "alt_km": 516.3416186476352, "timestamp": "2025-12-09T11:33:54.457148+00:00", "meta": {"OBJECT_NAME": "TANDEM-X", "OBJECT_ID": "2010-030A", "EPOCH": "2025-12-08T13:39:18.929376", "MEAN_MOTION": 15.19159019, "ECCENTRICITY": 0.0002067, "INCLINATION": 97.4453, "RA_OF_ASC_NODE": 348.0112, "ARG_OF_PERICENTER": 89.3333, "MEAN_ANOMALY": 270.8138, "EPHEMERIS_TYPE": 0, "CLASSIFICATION_TYPE": "U", "NORAD_CAT_ID": 36605, "ELEMENT_SET_NO": 999, "REV_AT_EPOCH": 85770, "BSTAR": 0.00014235, "MEAN_MOTION_DOT": 2.924e-05, "MEAN_MOTION_DDOT": 0}, "tle": {"line1": "1 36605U 10030A   25342.56896909  .00002924  00000+0  14235-3 0  9996", "line2": "2 36605  97.4453 348.0112 0002067  89.3333 270.8138 15.19159019857704"}}, "geometry": {"type": "Point", "coordinates": [-2.1673356537242707, -49.86151535751674]}}, {"type": "Feature", "properties": {"norad_id": 36795, "name": "CARTOSAT-2B", "group": "resource", "lat": 73.69850353287202, "lon": -119.48889507624455, "alt_km": 617.4550180663455, "timestamp": "2025-12-09T11:33:54.457158+00:00", "meta": {"OBJECT_NAME": "CARTOSAT-2B", "OBJECT_ID": "2010-035A", "EPOCH": "2025-12-09T04:36:00.332928", "MEAN_MOTION": 14.78782201, "ECCENTRICITY": 0.0012951, "INCLINATION": 97.7853, "RA_OF_ASC_NODE": 32.3374, "ARG_OF_PERICENTER": 87.8656, "MEAN_ANOMALY": 272.4039, "EPHEMERIS_TYPE": 0, "CLASSIFICATION_TYPE": "U", "NORAD_CAT_ID": 36795, "ELEMENT_SET_NO": 999, "REV_AT_EPOCH": 83177, "BSTAR": 0.00017487, "MEAN_MOTION_DOT": 1.237e-05, "MEAN_MOTION_DDOT": 0}, "tle": {"line1": "1 36795U 10035A   25343.19167052  .00001237  00000+0  17487-3 0  9999", "line2": "2 36795  97.7853  32.3374 0012951  87.8656 272.4039 14.78782201831774"}}, "geometry": {"type": "Point", "coordinates": [-119.48889507624455, 73.69850353287202]}}, {"type": "Feature", "properties": {"norad_id": 36834, "name": "YAOGAN-10", "group": "resource", "lat": 62.797560113772775, "lon": -160.97153043275867, "alt_km": 607.9741287119296, "timestamp": "2025-12-09T11:33:54.457168+00:00", "meta": {"OBJECT_NAME": "YAOGAN-10", "OBJECT_ID": "2010-038A", "EPOCH": "2025-12-09T04:58:10.841952", "MEAN_MOTION": 14.84584797, "ECCENTRICITY": 0.0001401, "INCLINATION": 97.9139, "RA_OF_ASC_NODE": 3.0536, "ARG_OF_PERICENTER": 81.4213, "MEAN_ANOMALY": 6.8014, "EPHEMERIS_TYPE": 0, "CLASSIFICATION_TYPE": "U", "NORAD_CAT_ID": 36834, "ELEMENT_SET_NO": 999, "REV_AT_EPOCH": 82901, "BSTAR": 0.00028609, "MEAN_MOTION_DOT": 2.362e-05, "MEAN_MOTION_DDOT": 0}, "tle": {"line1": "1 36834U 10038A   25343.20706993  .00002362  00000+0  28609-3 0  9999", "line2": "2 36834  97.9139   3.0536 0001401  81.4213   6.8014 14.84584797829012"}}, "geometry": {"type": "Point", "coordinates": [-160.97153043275867, 62.797560113772775]}}]}